[{"OBJECT_NAME":"STARLINK-35644","OBJECT_ID":"2025-257Y","EPOCH":"2026-03-09T15:21:41.019840","MEAN_MOTION":15.3019286,"ECCENTRICITY":9.9e-5,"INCLINATION":53.1577,"RA_OF_ASC_NODE":217.407,"ARG_OF_PERICENTER":86.7928,"MEAN_ANOMALY":273.3186,"EPHEMERIS_TYPE":0,"CLASSIFICATION_TYPE":"U","NORAD_CAT_ID":66402,"ELEMENT_SET_NO":999,"REV_AT_EPOCH":1971,"BSTAR":0.00039372,"MEAN_MOTION_DOT":0.00011317,"MEAN_MOTION_DDOT":0},{"OBJECT_NAME":"TRANSPORTER-1 OBJECT AA","OBJECT_ID":"2021-006AA","EPOCH":"2026-03-09T22:58:14.761920","MEAN_MOTION":15.29982294,"ECCENTRICITY":0.00086604,"INCLINATION":97.2381,"RA_OF_ASC_NODE":112.457,"ARG_OF_PERICENTER":185.709,"MEAN_ANOMALY":174.4054,"EPHEMERIS_TYPE":0,"CLASSIFICATION_TYPE":"U","NORAD_CAT_ID":47437,"ELEMENT_SET_NO":999,"REV_AT_EPOCH":28414,"BSTAR":0.0002197941,"MEAN_MOTION_DOT":6.312e-5,"MEAN_MOTION_DDOT":0}]
